{
  "type": "FeatureCollection",
  "features": [
    {
      "type": "Feature",
      "properties": {
        "norad_id": 30250,
        "name": "FENGYUN 1C DEB",
        "group": "fengyun-1c-debris",
        "lat": -51.174358248360896,
        "lon": -18.35735843849686,
        "alt_km": 870.5663162364763,
        "timestamp": "2025-12-04T07:39:36.410612+00:00",
        "meta_object_name": "FENGYUN 1C DEB",
        "meta_object_id": "1999-025XK",
        "meta_epoch": "2025-12-03T21:56:22.227360",
        "meta_mean_motion": 14.01608403,
        "meta_eccentricity": 0.00686392,
        "meta_inclination": 98.753,
        "meta_ra_of_asc_node": 330.2171,
        "meta_arg_of_pericenter": 248.3144,
        "meta_mean_anomaly": 176.5128,
        "meta_ephemeris_type": 0,
        "meta_classification_type": "U",
        "meta_norad_cat_id": 30250,
        "meta_element_set_no": 999,
        "meta_rev_at_epoch": 96368,
        "meta_bstar": 0.0007283913,
        "meta_mean_motion_dot": 1.083e-05,
        "meta_mean_motion_ddot": 0,
        "tle_line1": "1 30250U 99025XK  25337.91414615  .00001083  00000+0  72839-3 0  9999",
        "tle_line2": "2 30250  98.7530 330.2171 0068639 248.3144 176.5128 14.01608403963688"
      },
      "geometry": {
        "type": "Point",
        "coordinates": [
          -18.35735843849686,
          -51.174358248360896
        ]
      }
    },
    {
      "type": "Feature",
      "properties": {
        "norad_id": 30251,
        "name": "FENGYUN 1C DEB",
        "group": "fengyun-1c-debris",
        "lat": -71.71195167087501,
        "lon": -32.51433537339728,
        "alt_km": 808.1260076904437,
        "timestamp": "2025-12-04T07:39:36.410621+00:00",
        "meta_object_name": "FENGYUN 1C DEB",
        "meta_object_id": "1999-025XL",
        "meta_epoch": "2025-12-03T12:07:47.269344",
        "meta_mean_motion": 14.29267713,
        "meta_eccentricity": 0.00521043,
        "meta_inclination": 99.0494,
        "meta_ra_of_asc_node": 175.4723,
        "meta_arg_of_pericenter": 356.9781,
        "meta_mean_anomaly": 32.8615,
        "meta_ephemeris_type": 0,
        "meta_classification_type": "U",
        "meta_norad_cat_id": 30251,
        "meta_element_set_no": 999,
        "meta_rev_at_epoch": 98010,
        "meta_bstar": 0.00067835867,
        "meta_mean_motion_dot": 1.703e-05,
        "meta_mean_motion_ddot": 0,
        "tle_line1": "1 30251U 99025XL  25337.50540821  .00001703  00000+0  67836-3 0  9994",
        "tle_line2": "2 30251  99.0494 175.4723 0052104 356.9781  32.8615 14.29267713980103"
      },
      "geometry": {
        "type": "Point",
        "coordinates": [
          -32.51433537339728,
          -71.71195167087501
        ]
      }
    },
    {
      "type": "Feature",
      "properties": {
        "norad_id": 30252,
        "name": "FENGYUN 1C DEB",
        "group": "fengyun-1c-debris",
        "lat": -6.397296077240776,
        "lon": -5.413347711944843,
        "alt_km": 862.0601692057508,
        "timestamp": "2025-12-04T07:39:36.410630+00:00",
        "meta_object_name": "FENGYUN 1C DEB",
        "meta_object_id": "1999-025XM",
        "meta_epoch": "2025-12-03T01:20:02.285664",
        "meta_mean_motion": 14.09684476,
        "meta_eccentricity": 0.00657443,
        "meta_inclination": 98.7439,
        "meta_ra_of_asc_node": 352.3706,
        "meta_arg_of_pericenter": 269.3418,
        "meta_mean_anomaly": 154.574,
        "meta_ephemeris_type": 0,
        "meta_classification_type": "U",
        "meta_norad_cat_id": 30252,
        "meta_element_set_no": 999,
        "meta_rev_at_epoch": 96829,
        "meta_bstar": 0.00065160232,
        "meta_mean_motion_dot": 1.122e-05,
        "meta_mean_motion_ddot": 0,
        "tle_line1": "1 30252U 99025XM  25337.05558201  .00001122  00000+0  65160-3 0  9999",
        "tle_line2": "2 30252  98.7439 352.3706 0065744 269.3418 154.5740 14.09684476968298"
      },
      "geometry": {
        "type": "Point",
        "coordinates": [
          -5.413347711944843,
          -6.397296077240776
        ]
      }
    },
    {
      "type": "Feature",
      "properties": {
        "norad_id": 30253,
        "name": "FENGYUN 1C DEB",
        "group": "fengyun-1c-debris",
        "lat": 5.161960932219606,
        "lon": -112.10957216804302,
        "alt_km": 1045.713044056677,
        "timestamp": "2025-12-04T07:39:36.410639+00:00",
        "meta_object_name": "FENGYUN 1C DEB",
        "meta_object_id": "1999-025XN",
        "meta_epoch": "2025-12-03T19:09:54.006336",
        "meta_mean_motion": 13.73131459,
        "meta_eccentricity": 0.02221971,
        "meta_inclination": 98.7531,
        "meta_ra_of_asc_node": 66.6164,
        "meta_arg_of_pericenter": 65.1428,
        "meta_mean_anomaly": 54.8973,
        "meta_ephemeris_type": 0,
        "meta_classification_type": "U",
        "meta_norad_cat_id": 30253,
        "meta_element_set_no": 999,
        "meta_rev_at_epoch": 93891,
        "meta_bstar": 0.0025793188,
        "meta_mean_motion_dot": 2.813e-05,
        "meta_mean_motion_ddot": 0,
        "tle_line1": "1 30253U 99025XN  25337.79854174  .00002813  00000+0  25793-2 0  9994",
        "tle_line2": "2 30253  98.7531  66.6164 0222197  65.1428  54.8973 13.73131459938919"
      },
      "geometry": {
        "type": "Point",
        "coordinates": [
          -112.10957216804302,
          5.161960932219606
        ]
      }
    },
    {
      "type": "Feature",
      "properties": {
        "norad_id": 30257,
        "name": "FENGYUN 1C DEB",
        "group": "fengyun-1c-debris",
        "lat": -8.586349859180325,
        "lon": -21.548049654905228,
        "alt_km": 892.5677176520303,
        "timestamp": "2025-12-04T07:39:36.410648+00:00",
        "meta_object_name": "FENGYUN 1C DEB",
        "meta_object_id": "1999-025XS",
        "meta_epoch": "2025-12-03T18:54:30.413664",
        "meta_mean_motion": 14.0971659,
        "meta_eccentricity": 0.00595209,
        "meta_inclination": 98.7495,
        "meta_ra_of_asc_node": 336.6031,
        "meta_arg_of_pericenter": 124.2008,
        "meta_mean_anomaly": 52.8098,
        "meta_ephemeris_type": 0,
        "meta_classification_type": "U",
        "meta_norad_cat_id": 30257,
        "meta_element_set_no": 999,
        "meta_rev_at_epoch": 97091,
        "meta_bstar": 0.00013465053,
        "meta_mean_motion_dot": 1.98e-06,
        "meta_mean_motion_ddot": 0,
        "tle_line1": "1 30257U 99025XS  25337.78785201  .00000198  00000+0  13465-3 0  9999",
        "tle_line2": "2 30257  98.7495 336.6031 0059520 124.2008  52.8098 14.09716590970911"
      },
      "geometry": {
        "type": "Point",
        "coordinates": [
          -21.548049654905228,
          -8.586349859180325
        ]
      }
    },
    {
      "type": "Feature",
      "properties": {
        "norad_id": 30259,
        "name": "FENGYUN 1C DEB",
        "group": "fengyun-1c-debris",
        "lat": -31.058238632913003,
        "lon": 4.338600393498285,
        "alt_km": 700.6659327681618,
        "timestamp": "2025-12-04T07:39:36.410657+00:00",
        "meta_object_name": "FENGYUN 1C DEB",
        "meta_object_id": "1999-025XU",
        "meta_epoch": "2025-12-03T12:43:52.961376",
        "meta_mean_motion": 14.51425689,
        "meta_eccentricity": 0.02423777,
        "meta_inclination": 98.7622,
        "meta_ra_of_asc_node": 188.8457,
        "meta_arg_of_pericenter": 296.3317,
        "meta_mean_anomaly": 119.1076,
        "meta_ephemeris_type": 0,
        "meta_classification_type": "U",
        "meta_norad_cat_id": 30259,
        "meta_element_set_no": 999,
        "meta_rev_at_epoch": 99341,
        "meta_bstar": 0.00072969926,
        "meta_mean_motion_dot": 4.208e-05,
        "meta_mean_motion_ddot": 0,
        "tle_line1": "1 30259U 99025XU  25337.53047409  .00004208  00000+0  72970-3 0  9997",
        "tle_line2": "2 30259  98.7622 188.8457 0242377 296.3317 119.1076 14.51425689993418"
      },
      "geometry": {
        "type": "Point",
        "coordinates": [
          4.338600393498285,
          -31.058238632913003
        ]
      }
    },
    {
      "type": "Feature",
      "properties": {
        "norad_id": 30261,
        "name": "FENGYUN 1C DEB",
        "group": "fengyun-1c-debris",
        "lat": 29.699821855528118,
        "lon": -154.9545181784839,
        "alt_km": 212.05346617847863,
        "timestamp": "2025-12-04T07:39:36.410666+00:00",
        "meta_object_name": "FENGYUN 1C DEB",
        "meta_object_id": "1999-025XW",
        "meta_epoch": "2025-12-03T14:45:22.478400",
        "meta_mean_motion": 16.19472245,
        "meta_eccentricity": 0.00104681,
        "meta_inclination": 98.7281,
        "meta_ra_of_asc_node": 19.071,
        "meta_arg_of_pericenter": 295.4336,
        "meta_mean_anomaly": 64.5865,
        "meta_ephemeris_type": 0,
        "meta_classification_type": "U",
        "meta_norad_cat_id": 30261,
        "meta_element_set_no": 999,
        "meta_rev_at_epoch": 2226,
        "meta_bstar": 0.0019409359,
        "meta_mean_motion_dot": 0.03540954,
        "meta_mean_motion_ddot": 3.243749e-06,
        "tle_line1": "1 30261U 99025XW  25337.61484350  .03540954  32437-5  19409-2 0  9997",
        "tle_line2": "2 30261  98.7281  19.0710 0010468 295.4336  64.5865 16.19472245 22265"
      },
      "geometry": {
        "type": "Point",
        "coordinates": [
          -154.9545181784839,
          29.699821855528118
        ]
      }
    }
  ]
}